0 ECHOSTAR 16
1 39008U 12065A   13282.38281492 -.00000295  00000-0  10000-3 0  1833
2 39008 000.0136 212.8807 0002559 347.4447 254.1478 01.00271403  3343
0 ECHOSTAR 16
1 39008U 12065A   13286.08840976 -.00000306  00000-0  10000-3 0  1857
2 39008 000.0025 240.6488 0002917 311.3193 160.1887 01.00273222  3374
0 ECHOSTAR 16
1 39008U 12065A   13287.36556521 -.00000307  00000-0  10000-3 0  1861
2 39008 000.0001 240.6317 0002917 311.3622 261.1984 01.00271925  3396
0 ECHOSTAR 16
1 39008U 12065A   13288.24364275 -.00000307  00000-0  10000-3 0  1873
2 39008 000.0131 210.8161 0002917 341.1955 218.1594 01.00272042  3408
0 ECHOSTAR 16
1 39008U 12065A   13288.24364275 -.00000307  00000-0  10000-3 0  1884
2 39008 000.0131 210.8161 0002917 341.1955 218.1599 01.00272149  3401
0 ECHOSTAR 16
1 39008U 12065A   13290.35199602 -.00000304  00000-0  10000-3 0  1897
2 39008 000.0008 253.3557 0002917 298.6983 259.2041 01.00271670  3420
0 ECHOSTAR 16
1 39008U 12065A   13292.24422711 -.00000300  00000-0  10000-3 0  1905
2 39008 000.0242 235.0309 0002747 322.2754 217.0214 01.00271484  3442
0 ECHOSTAR 16
1 39008U 12065A   13295.26729944 -.00000295  00000-0  10000-3 0  1912
2 39008 000.0187 234.9904 0002748 322.3761 228.2424 01.00270776  3472
